[
  {
    "OBJECT_NAME": "STARLINK-34013",
    "OBJECT_ID": "25094H",
    "EPOCH": "2025-11-11T01:02:15.702720",
    "MEAN_MOTION": 14.9834125,
    "ECCENTRICITY": 0.0002871,
    "INCLINATION": 69.9996,
    "RA_OF_ASC_NODE": 173.5086,
    "ARG_OF_PERICENTER": 271.4913,
    "MEAN_ANOMALY": 88.5917,
    "EPHEMERIS_TYPE": 0,
    "CLASSIFICATION_TYPE": "U",
    "NORAD_CAT_ID": 63871,
    "ELEMENT_SET_NO": 999,
    "REV_AT_EPOCH": 2943,
    "BSTAR": 0.00040228000000000003,
    "MEAN_MOTION_DOT": 4.712e-05,
    "MEAN_MOTION_DDOT": 0.0,
    "TLE_LINE1": "1 63871U 25094H   25315.04323730  .00004712  00000+0  40228-3 0  9995",
    "TLE_LINE2": "2 63871  69.9996 173.5086 0002871 271.4913  88.5917 14.98341250 29433",
    "COMMENT": "Grouped by shell and plane from TLE"
  },
  {
    "OBJECT_NAME": "STARLINK-34059",
    "OBJECT_ID": "25094J",
    "EPOCH": "2025-11-11T00:26:14.231328",
    "MEAN_MOTION": 14.9834079,
    "ECCENTRICITY": 0.0002598,
    "INCLINATION": 70.0011,
    "RA_OF_ASC_NODE": 173.8216,
    "ARG_OF_PERICENTER": 270.058,
    "MEAN_ANOMALY": 90.0281,
    "EPHEMERIS_TYPE": 0,
    "CLASSIFICATION_TYPE": "U",
    "NORAD_CAT_ID": 63872,
    "ELEMENT_SET_NO": 999,
    "REV_AT_EPOCH": 2942,
    "BSTAR": 0.00052952,
    "MEAN_MOTION_DOT": 6.232e-05,
    "MEAN_MOTION_DDOT": 0.0,
    "TLE_LINE1": "1 63872U 25094J   25315.01822027  .00006232  00000+0  52952-3 0  9992",
    "TLE_LINE2": "2 63872  70.0011 173.8216 0002598 270.0580  90.0281 14.98340790 29423",
    "COMMENT": "Grouped by shell and plane from TLE"
  },
  {
    "OBJECT_NAME": "STARLINK-33987",
    "OBJECT_ID": "25094K",
    "EPOCH": "2025-11-11T01:14:16.544832",
    "MEAN_MOTION": 14.98329615,
    "ECCENTRICITY": 0.0003437,
    "INCLINATION": 69.9987,
    "RA_OF_ASC_NODE": 173.5359,
    "ARG_OF_PERICENTER": 263.0376,
    "MEAN_ANOMALY": 97.0392,
    "EPHEMERIS_TYPE": 0,
    "CLASSIFICATION_TYPE": "U",
    "NORAD_CAT_ID": 63873,
    "ELEMENT_SET_NO": 999,
    "REV_AT_EPOCH": 2943,
    "BSTAR": 0.00017069,
    "MEAN_MOTION_DOT": 1.944e-05,
    "MEAN_MOTION_DDOT": 0.0,
    "TLE_LINE1": "1 63873U 25094K   25315.05158038  .00001944  00000+0  17069-3 0  9996",
    "TLE_LINE2": "2 63873  69.9987 173.5359 0003437 263.0376  97.0392 14.98329615 29430",
    "COMMENT": "Grouped by shell and plane from TLE"
  },
  {
    "OBJECT_NAME": "STARLINK-34052",
    "OBJECT_ID": "25094L",
    "EPOCH": "2025-11-11T00:20:15.315360",
    "MEAN_MOTION": 14.9832499,
    "ECCENTRICITY": 0.0002592,
    "INCLINATION": 70.0027,
    "RA_OF_ASC_NODE": 173.8034,
    "ARG_OF_PERICENTER": 262.2387,
    "MEAN_ANOMALY": 97.8478,
    "EPHEMERIS_TYPE": 0,
    "CLASSIFICATION_TYPE": "U",
    "NORAD_CAT_ID": 63874,
    "ELEMENT_SET_NO": 999,
    "REV_AT_EPOCH": 2942,
    "BSTAR": 0.0023048,
    "MEAN_MOTION_DOT": 0.00027511,
    "MEAN_MOTION_DDOT": 0.0,
    "TLE_LINE1": "1 63874U 25094L   25315.01406615  .00027511  00000+0  23048-2 0  9991",
    "TLE_LINE2": "2 63874  70.0027 173.8034 0002592 262.2387  97.8478 14.98324990 29429",
    "COMMENT": "Grouped by shell and plane from TLE"
  },
  {
    "OBJECT_NAME": "STARLINK-34023",
    "OBJECT_ID": "25094M",
    "EPOCH": "2025-11-11T01:08:16.290528",
    "MEAN_MOTION": 14.98342651,
    "ECCENTRICITY": 0.0002458,
    "INCLINATION": 69.9997,
    "RA_OF_ASC_NODE": 173.5192,
    "ARG_OF_PERICENTER": 276.5022,
    "MEAN_ANOMALY": 83.5858,
    "EPHEMERIS_TYPE": 0,
    "CLASSIFICATION_TYPE": "U",
    "NORAD_CAT_ID": 63875,
    "ELEMENT_SET_NO": 999,
    "REV_AT_EPOCH": 2943,
    "BSTAR": 0.00043575000000000005,
    "MEAN_MOTION_DOT": 5.112e-05,
    "MEAN_MOTION_DDOT": 0.0,
    "TLE_LINE1": "1 63875U 25094M   25315.04741077  .00005112  00000+0  43575-3 0  9990",
    "TLE_LINE2": "2 63875  69.9997 173.5192 0002458 276.5022  83.5858 14.98342651 29439",
    "COMMENT": "Grouped by shell and plane from TLE"
  },
  {
    "OBJECT_NAME": "STARLINK-34061",
    "OBJECT_ID": "25094N",
    "EPOCH": "2025-11-11T00:38:30.063840",
    "MEAN_MOTION": 14.98341462,
    "ECCENTRICITY": 0.0001835,
    "INCLINATION": 69.9992,
    "RA_OF_ASC_NODE": 173.8475,
    "ARG_OF_PERICENTER": 277.4054,
    "MEAN_ANOMALY": 82.6897,
    "EPHEMERIS_TYPE": 0,
    "CLASSIFICATION_TYPE": "U",
    "NORAD_CAT_ID": 63876,
    "ELEMENT_SET_NO": 999,
    "REV_AT_EPOCH": 2942,
    "BSTAR": 0.00054025,
    "MEAN_MOTION_DOT": 6.361e-05,
    "MEAN_MOTION_DDOT": 0.0,
    "TLE_LINE1": "1 63876U 25094N   25315.02673685  .00006361  00000+0  54025-3 0  9997",
    "TLE_LINE2": "2 63876  69.9992 173.8475 0001835 277.4054  82.6897 14.98341462 29426",
    "COMMENT": "Grouped by shell and plane from TLE"
  },
  {
    "OBJECT_NAME": "STARLINK-33778",
    "OBJECT_ID": "25094P",
    "EPOCH": "2025-11-11T01:38:35.746656",
    "MEAN_MOTION": 14.98342018,
    "ECCENTRICITY": 0.0002943,
    "INCLINATION": 70.0009,
    "RA_OF_ASC_NODE": 173.5878,
    "ARG_OF_PERICENTER": 270.1572,
    "MEAN_ANOMALY": 89.925,
    "EPHEMERIS_TYPE": 0,
    "CLASSIFICATION_TYPE": "U",
    "NORAD_CAT_ID": 63877,
    "ELEMENT_SET_NO": 999,
    "REV_AT_EPOCH": 2943,
    "BSTAR": 0.0009033099999999999,
    "MEAN_MOTION_DOT": 0.00010705,
    "MEAN_MOTION_DDOT": 0.0,
    "TLE_LINE1": "1 63877U 25094P   25315.06846929  .00010705  00000+0  90331-3 0  9992",
    "TLE_LINE2": "2 63877  70.0009 173.5878 0002943 270.1572  89.9250 14.98342018 29431",
    "COMMENT": "Grouped by shell and plane from TLE"
  },
  {
    "OBJECT_NAME": "STARLINK-33901",
    "OBJECT_ID": "25094Q",
    "EPOCH": "2025-11-11T00:26:28.302432",
    "MEAN_MOTION": 14.98344308,
    "ECCENTRICITY": 0.0002649,
    "INCLINATION": 69.9993,
    "RA_OF_ASC_NODE": 173.8137,
    "ARG_OF_PERICENTER": 269.3418,
    "MEAN_ANOMALY": 90.7438,
    "EPHEMERIS_TYPE": 0,
    "CLASSIFICATION_TYPE": "U",
    "NORAD_CAT_ID": 63878,
    "ELEMENT_SET_NO": 999,
    "REV_AT_EPOCH": 2942,
    "BSTAR": 0.00048259,
    "MEAN_MOTION_DOT": 5.672e-05,
    "MEAN_MOTION_DDOT": 0.0,
    "TLE_LINE1": "1 63878U 25094Q   25315.01838313  .00005672  00000+0  48259-3 0  9995",
    "TLE_LINE2": "2 63878  69.9993 173.8137 0002649 269.3418  90.7438 14.98344308 29425",
    "COMMENT": "Grouped by shell and plane from TLE"
  },
  {
    "OBJECT_NAME": "STARLINK-33812",
    "OBJECT_ID": "25094R",
    "EPOCH": "2025-11-11T01:26:19.909824",
    "MEAN_MOTION": 14.98347778,
    "ECCENTRICITY": 0.0003027,
    "INCLINATION": 69.9996,
    "RA_OF_ASC_NODE": 173.5565,
    "ARG_OF_PERICENTER": 272.8458,
    "MEAN_ANOMALY": 87.2355,
    "EPHEMERIS_TYPE": 0,
    "CLASSIFICATION_TYPE": "U",
    "NORAD_CAT_ID": 63879,
    "ELEMENT_SET_NO": 999,
    "REV_AT_EPOCH": 2943,
    "BSTAR": 0.00069907,
    "MEAN_MOTION_DOT": 8.262e-05,
    "MEAN_MOTION_DDOT": 0.0,
    "TLE_LINE1": "1 63879U 25094R   25315.05995266  .00008262  00000+0  69907-3 0  9992",
    "TLE_LINE2": "2 63879  69.9996 173.5565 0003027 272.8458  87.2355 14.98347778 29439",
    "COMMENT": "Grouped by shell and plane from TLE"
  },
  {
    "OBJECT_NAME": "STARLINK-33779",
    "OBJECT_ID": "25094S",
    "EPOCH": "2025-11-11T00:14:13.552512",
    "MEAN_MOTION": 14.98339022,
    "ECCENTRICITY": 0.000204,
    "INCLINATION": 69.9987,
    "RA_OF_ASC_NODE": 173.7914,
    "ARG_OF_PERICENTER": 275.4525,
    "MEAN_ANOMALY": 84.6402,
    "EPHEMERIS_TYPE": 0,
    "CLASSIFICATION_TYPE": "U",
    "NORAD_CAT_ID": 63880,
    "ELEMENT_SET_NO": 999,
    "REV_AT_EPOCH": 2942,
    "BSTAR": 0.00056607,
    "MEAN_MOTION_DOT": 6.669e-05,
    "MEAN_MOTION_DDOT": 0.0,
    "TLE_LINE1": "1 63880U 25094S   25315.00987908  .00006669  00000+0  56607-3 0  9995",
    "TLE_LINE2": "2 63880  69.9987 173.7914 0002040 275.4525  84.6402 14.98339022 29425",
    "COMMENT": "Grouped by shell and plane from TLE"
  },
  {
    "OBJECT_NAME": "STARLINK-33905",
    "OBJECT_ID": "25094T",
    "EPOCH": "2025-11-11T00:50:14.973792",
    "MEAN_MOTION": 14.98343804,
    "ECCENTRICITY": 0.0003195,
    "INCLINATION": 69.9995,
    "RA_OF_ASC_NODE": 173.4775,
    "ARG_OF_PERICENTER": 269.1377,
    "MEAN_ANOMALY": 90.9416,
    "EPHEMERIS_TYPE": 0,
    "CLASSIFICATION_TYPE": "U",
    "NORAD_CAT_ID": 63881,
    "ELEMENT_SET_NO": 999,
    "REV_AT_EPOCH": 2943,
    "BSTAR": 0.00053813,
    "MEAN_MOTION_DOT": 6.336e-05,
    "MEAN_MOTION_DDOT": 0.0,
    "TLE_LINE1": "1 63881U 25094T   25315.03489553  .00006336  00000+0  53813-3 0  9999",
    "TLE_LINE2": "2 63881  69.9995 173.4775 0003195 269.1377  90.9416 14.98343804 29433",
    "COMMENT": "Grouped by shell and plane from TLE"
  },
  {
    "OBJECT_NAME": "STARLINK-33968",
    "OBJECT_ID": "25094V",
    "EPOCH": "2025-11-11T00:32:29.041440",
    "MEAN_MOTION": 14.98341456,
    "ECCENTRICITY": 0.0002691,
    "INCLINATION": 70.0003,
    "RA_OF_ASC_NODE": 173.8311,
    "ARG_OF_PERICENTER": 270.4179,
    "MEAN_ANOMALY": 89.6672,
    "EPHEMERIS_TYPE": 0,
    "CLASSIFICATION_TYPE": "U",
    "NORAD_CAT_ID": 63883,
    "ELEMENT_SET_NO": 999,
    "REV_AT_EPOCH": 2942,
    "BSTAR": 0.00050807,
    "MEAN_MOTION_DOT": 5.976e-05,
    "MEAN_MOTION_DDOT": 0.0,
    "TLE_LINE1": "1 63883U 25094V   25315.02255835  .00005976  00000+0  50807-3 0  9993",
    "TLE_LINE2": "2 63883  70.0003 173.8311 0002691 270.4179  89.6672 14.98341456 29422",
    "COMMENT": "Grouped by shell and plane from TLE"
  },
  {
    "OBJECT_NAME": "STARLINK-33943",
    "OBJECT_ID": "25094W",
    "EPOCH": "2025-11-11T00:44:14.369568",
    "MEAN_MOTION": 14.98336997,
    "ECCENTRICITY": 0.0002914,
    "INCLINATION": 70.0,
    "RA_OF_ASC_NODE": 173.4617,
    "ARG_OF_PERICENTER": 275.7144,
    "MEAN_ANOMALY": 84.3683,
    "EPHEMERIS_TYPE": 0,
    "CLASSIFICATION_TYPE": "U",
    "NORAD_CAT_ID": 63884,
    "ELEMENT_SET_NO": 999,
    "REV_AT_EPOCH": 2943,
    "BSTAR": 0.0005572,
    "MEAN_MOTION_DOT": 6.563e-05,
    "MEAN_MOTION_DDOT": 0.0,
    "TLE_LINE1": "1 63884U 25094W   25315.03072187  .00006563  00000+0  55720-3 0  9994",
    "TLE_LINE2": "2 63884  70.0000 173.4617 0002914 275.7144  84.3683 14.98336997 29432",
    "COMMENT": "Grouped by shell and plane from TLE"
  }
]